NORAD_CAT_ID,OBJECT_NAME,OBJECT_TYPE,EPOCH,MEAN_MOTION,ECCENTRICITY,INCLINATION,RA_OF_ASC_NODE,ARG_OF_PERICENTER,MEAN_ANOMALY,BSTAR,MEAN_MOTION_DOT,MEAN_MOTION_DDOT,TLE_LINE0,TLE_LINE1,TLE_LINE2,SEMIMAJOR_AXIS,PERIOD,APOGEE,PERIGEE,DECAYED
49453.0,STARLINK-3129,PAYLOAD,2024-01-25 11:12:06,15.08841765,0.0002027,53.2186,94.8401,74.5712,285.5504,0.00018411,2.643e-05,0.0,0 STARLINK-3129,1 49453U 21104AX  24025.46674219  .00002643  00000-0  18411-3 0  9998,2 49453  53.2186  94.8401 0002027  74.5712 285.5504 15.08841765121890,6917.875,95.437,541.142,538.338,0.0
49453.0,STARLINK-3129,PAYLOAD,2024-01-26 11:02:53,15.08844853,0.000206,53.2189,90.38,88.0923,272.0305,0.00018645,2.681e-05,0.0,0 STARLINK-3129,1 49453U 21104AX  24026.46033979  .00002681  00000-0  18645-3 0  9992,2 49453  53.2189  90.3800 0002060  88.0923 272.0305 15.08844853123116,6917.866,95.437,541.156,538.305,0.0
49453.0,STARLINK-3129,PAYLOAD,2024-01-27 09:18:17,15.08839557,0.0001955,53.219,86.2117,103.5119,256.6091,8.7505e-05,1.105e-05,0.0,0 STARLINK-3129,1 49453U 21104AX  24027.38770217  .00001105  00000-0  87505-4 0  9999,2 49453  53.2190  86.2117 0001955 103.5119 256.6091 15.08839557123255,6917.882,95.438,541.099,538.394,0.0
49453.0,STARLINK-3129,PAYLOAD,2024-01-28 09:09:04,15.08837589,0.0002116,53.2188,81.749,105.2967,254.8259,4.3165e-05,3.99e-06,0.0,0 STARLINK-3129,1 49453U 21104AX  24028.38130458  .00000399  00000-0  43165-4 0  9995,2 49453  53.2188  81.7490 0002116 105.2967 254.8259 15.08837589122333,6917.888,95.438,541.217,538.289,0.0
49453.0,STARLINK-3129,PAYLOAD,2024-01-29 12:10:37,15.08843101,0.0001878,53.2179,76.6938,93.1449,266.9758,0.00013109,1.799e-05,0.0,0 STARLINK-3129,1 49453U 21104AX  24029.50738200  .00001799  00000-0  13109-3 0  9998,2 49453  53.2179  76.6938 0001878  93.1449 266.9758 15.08843101123579,6917.871,95.437,541.035,538.437,0.0
49453.0,STARLINK-3129,PAYLOAD,2024-01-30 12:01:24,15.0884461,0.0001981,53.2179,72.2269,107.4943,252.6265,3.618e-05,2.88e-06,0.0,0 STARLINK-3129,1 49453U 21104AX  24030.50098367  .00000288  00000-0  36180-4 0  9990,2 49453  53.2179  72.2269 0001981 107.4943 252.6265 15.08844610123729,6917.866,95.437,541.102,538.361,0.0
49453.0,STARLINK-3129,PAYLOAD,2024-01-31 11:52:11,15.08848744,0.0002132,53.2192,67.7638,75.8214,284.3015,8.7677e-05,1.108e-05,0.0,0 STARLINK-3129,1 49453U 21104AX  24031.49458061  .00001108  00000-0  87677-4 0  9999,2 49453  53.2192  67.7638 0002132  75.8214 284.3015 15.08848744122806,6917.854,95.437,541.194,538.244,0.0
49453.0,STARLINK-3129,PAYLOAD,2024-02-01 08:32:13,15.08838718,0.0001915,53.2189,63.8974,89.4285,270.6927,1.2963e-05,-8.2e-07,0.0,0 STARLINK-3129,1 49453U 21104AX  24032.35570782 -.00000082  00000-0  12963-4 0  9997,2 49453  53.2189  63.8974 0001915  89.4285 270.6927 15.08838718124003,6917.884,95.438,541.074,538.425,0.0
49453.0,STARLINK-3129,PAYLOAD,2024-02-02 11:33:45,15.08848202,0.0001918,53.2181,58.8473,112.6527,247.4668,1.2576e-05,-8.8e-07,0.0,0 STARLINK-3129,1 49453U 21104AX  24033.48177999 -.00000088  00000-0  12576-4 0  9991,2 49453  53.2181  58.8473 0001918 112.6527 247.4668 15.08848202124175,6917.855,95.437,541.047,538.393,0.0
49453.0,STARLINK-3129,PAYLOAD,2024-02-03 08:13:47,15.08836513,0.0001652,53.2173,54.979,88.3999,271.7182,4.4489e-05,4.2e-06,0.0,0 STARLINK-3129,1 49453U 21104AX  24034.34290953  .00000420  00000-0  44489-4 0  9990,2 49453  53.2173  54.9790 0001652  88.3999 271.7182 15.08836513124300,6917.891,95.438,540.899,538.613,0.0
49453.0,STARLINK-3129,PAYLOAD,2024-02-04 09:39:55,15.08858456,0.0001612,53.2179,50.2221,93.8342,266.2835,0.00020496,2.977e-05,0.0,0 STARLINK-3129,1 49453U 21104AX  24035.40273141  .00002977  00000-0  20496-3 0  9998,2 49453  53.2179  50.2221 0001612  93.8342 266.2835 15.08858456124464,6917.824,95.436,540.804,538.574,0.0
49453.0,STARLINK-3129,PAYLOAD,2024-02-05 04:44:35,15.08835348,0.0001539,53.2178,46.6583,102.6528,257.4636,4.7275e-05,4.64e-06,0.0,0 STARLINK-3129,1 49453U 21104AX  24036.19763076  .00000464  00000-0  47275-4 0  9990,2 49453  53.2178  46.6583 0001539 102.6528 257.4636 15.08835348124585,6917.895,95.438,540.824,538.695,0.0
49453.0,STARLINK-3129,PAYLOAD,2024-02-05 11:06:07,15.08837967,0.000161,53.2178,45.4687,95.7299,264.3877,6.3657e-05,7.25e-06,0.0,0 STARLINK-3129,1 49453U 21104AX  24036.46259025  .00000725  00000-0  63657-4 0  9996,2 49453  53.2178  45.4687 0001610  95.7299 264.3877 15.08837967123553,6917.887,95.438,540.865,538.638,0.0
49453.0,STARLINK-3129,PAYLOAD,2024-02-06 09:21:31,15.08844384,0.0001845,53.2178,41.3049,95.4952,264.625,8.1764e-05,1.014e-05,0.0,0 STARLINK-3129,1 49453U 21104AX  24037.38994849  .00001014  00000-0  81764-4 0  9999,2 49453  53.2178  41.3049 0001845  95.4952 264.6250 15.08844384124766,6917.867,95.437,541.008,538.456,0.0
49453.0,STARLINK-3129,PAYLOAD,2024-02-07 07:36:55,15.08842487,0.0001819,53.2186,37.1424,89.4394,270.6807,0.00014385,2.002e-05,0.0,0 STARLINK-3129,1 49453U 21104AX  24038.31730857  .00002002  00000-0  14385-3 0  9992,2 49453  53.2186  37.1424 0001819  89.4394 270.6807 15.08842487123833,6917.873,95.437,540.996,538.479,0.0
49453.0,STARLINK-3129,PAYLOAD,2024-02-07 17:09:14,15.0883844,0.0001897,53.2186,35.3604,74.3416,285.7785,9.2274e-05,1.181e-05,0.0,0 STARLINK-3129,1 49453U 21104AX  24038.71475360  .00001181  00000-0  92274-4 0  9992,2 49453  53.2186  35.3604 0001897  74.3416 285.7785 15.08838440124968,6917.885,95.438,541.062,538.438,0.0
49453.0,STARLINK-3129,PAYLOAD,2024-02-08 09:03:05,15.08844593,0.000182,53.2195,32.381,106.8115,253.3077,6.7447e-07,-2.77e-06,0.0,0 STARLINK-3129,1 49453U 21104AX  24039.37715114 -.00000277  00000-0  67447-6 0  9991,2 49453  53.2195  32.3810 0001820 106.8115 253.3077 15.08844593123990,6917.866,95.437,540.99,538.472,0.0
49453.0,STARLINK-3129,PAYLOAD,2024-02-09 04:07:43,15.08850862,0.0001712,53.2193,28.8122,111.35,248.7675,-1.3271e-05,-4.99e-06,0.0,0 STARLINK-3129,1 49453U 21104AX  24040.17202867 -.00000499  00000-0 -13271-4 0  9998,2 49453  53.2193  28.8122 0001712 111.3500 248.7675 15.08850862125184,6917.847,95.437,540.897,538.528,0.0
49453.0,STARLINK-3129,PAYLOAD,2024-02-09 08:53:52,15.08847919,0.0001579,53.2186,27.9198,108.8101,251.3063,0.00013681,1.89e-05,0.0,0 STARLINK-3129,1 49453U 21104AX  24040.37074612  .00001890  00000-0  13681-3 0  9993,2 49453  53.2186  27.9198 0001579 108.8101 251.3063 15.08847919124143,6917.856,95.437,540.814,538.629,0.0
49453.0,STARLINK-3129,PAYLOAD,2024-02-10 03:58:31,15.08837522,0.0001839,53.2186,24.3528,111.5534,248.5654,0.00011122,1.482e-05,0.0,0 STARLINK-3129,1 49453U 21104AX  24041.16563676  .00001482  00000-0  11122-3 0  9999,2 49453  53.2186  24.3528 0001839 111.5534 248.5654 15.08837522125336,6917.888,95.438,541.025,538.481,0.0
49453.0,STARLINK-3129,PAYLOAD,2024-02-10 08:44:40,15.0884283,0.0001729,53.2184,23.4606,109.1262,250.9917,0.00010484,1.381e-05,0.0,0 STARLINK-3129,1 49453U 21104AX  24041.36435473  .00001381  00000-0  10484-3 0  9992,2 49453  53.2184  23.4606 0001729 109.1262 250.9917 15.08842830124291,6917.872,95.437,540.933,538.541,0.0
49453.0,STARLINK-3129,PAYLOAD,2024-02-11 05:24:41,15.08843791,0.00017,53.2177,19.5944,109.0095,251.1081,3.139e-05,2.12e-06,0.0,0 STARLINK-3129,1 49453U 21104AX  24042.22547541  .00000212  00000-0  31390-4 0  9990,2 49453  53.2177  19.5944 0001700 109.0095 251.1081 15.08843791125491,6917.869,95.437,540.91,538.558,0.0
49453.0,STARLINK-3129,PAYLOAD,2024-02-11 22:53:55,15.08848178,0.0001597,53.2178,16.323,106.2085,253.9083,0.00017781,2.544e-05,0.0,0 STARLINK-3129,1 49453U 21104AX  24042.95411195  .00002544  00000-0  17781-3 0  9992,2 49453  53.2178  16.3230 0001597 106.2085 253.9083 15.08848178124537,6917.855,95.437,540.825,538.616,0.0
49453.0,STARLINK-3129,PAYLOAD,2024-02-12 05:15:27,15.08863266,0.0001691,53.2179,15.1338,118.6464,241.4699,0.00037432,5.678e-05,0.0,0 STARLINK-3129,1 49453U 21104AX  24043.21906279  .00005678  00000-0  37432-3 0  9990,2 49453  53.2179  15.1338 0001691 118.6464 241.4699 15.08863266125640,6917.809,95.436,540.844,538.504,0.0
49453.0,STARLINK-3129,PAYLOAD,2024-02-13 03:30:52,15.0883703,0.0001503,53.2184,10.9753,106.7201,253.3956,-6.4875e-05,-1.32e-05,0.0,0 STARLINK-3129,1 49453U 21104AX  24044.14643608 -.00001320  00000-0 -64875-4 0  9991,2 49453  53.2184  10.9753 0001503 106.7201 253.3956 15.08837030125782,6917.889,95.438,540.794,538.715,0.0
49453.0,STARLINK-3129,PAYLOAD,2024-02-13 14:38:34,15.08840946,0.0001436,53.2186,8.8926,94.9651,265.1506,2.8517e-05,1.66e-06,0.0,0 STARLINK-3129,1 49453U 21104AX  24044.61011621  .00000166  00000-0  28517-4 0  9995,2 49453  53.2186   8.8926 0001436  94.9651 265.1506 15.08840946124785,6917.877,95.437,540.736,538.749,0.0
49453.0,STARLINK-3129,PAYLOAD,2024-02-14 04:57:00,15.08867008,0.0001729,53.2191,6.2172,98.2544,261.8645,0.00028999,4.334e-05,0.0,0 STARLINK-3129,1 49453U 21104AX  24045.20625973  .00004334  00000-0  28999-3 0  9996,2 49453  53.2191   6.2172 0001729  98.2544 261.8645 15.08867008125943,6917.798,95.436,540.859,538.467,0.0
49453.0,STARLINK-3129,PAYLOAD,2024-02-14 14:29:20,15.08845919,0.0001911,53.2189,4.4328,73.8249,286.2954,-6.785e-05,-1.368e-05,0.0,0 STARLINK-3129,1 49453U 21104AX  24045.60370708 -.00001368  00000-0 -67850-4 0  9999,2 49453  53.2189   4.4328 0001911  73.8249 286.2954 15.08845919124936,6917.862,95.437,541.049,538.405,0.0
49453.0,STARLINK-3129,PAYLOAD,2024-02-15 03:12:27,15.08820543,0.0001181,53.2177,2.0539,70.1885,289.9235,-0.00011326,-2.089e-05,0.0,0 STARLINK-3129,1 49453U 21104AX  24046.13364672 -.00002089  00000-0 -11326-3 0  9998,2 49453  53.2177   2.0539 0001181  70.1885 289.9235 15.08820543126082,6917.94,95.439,540.622,538.988,0.0
49453.0,STARLINK-3129,PAYLOAD,2024-02-15 04:47:49,15.08834305,0.0001517,53.218,1.7569,68.5442,291.5712,4.083e-05,3.62e-06,0.0,0 STARLINK-3129,1 49453U 21104AX  24046.19987951  .00000362  00000-0  40830-4 0  9998,2 49453  53.2180   1.7569 0001517  68.5442 291.5712 15.08834305126099,6917.898,95.438,540.812,538.713,0.0
